start=new Date('2021-12-15T00:00:00.000Z').valueOf();
sats=[{"GP_ID":"191693600","CENTER_NAME":"EARTH","DECAY_DATE":null,"MEAN_ANOMALY":"305.8675","FILE":"3240057","ECCENTRICITY":"0.00008750","NORAD_CAT_ID":"45053","REV_AT_EPOCH":"10342","TLE_LINE1":"1 45053U 20006K   21348.50577473  .00004460  00000-0  30588-3 0  9992","MEAN_MOTION":"15.07877274","RA_OF_ASC_NODE":"25.3767","OBJECT_ID":"2020-006K","TIME_SYSTEM":"UTC","COUNTRY_CODE":"US","EPOCH":"2021-12-14T12:08:18.936672","INCLINATION":"53.0017","PERIOD":"95.498","LAUNCH_DATE":"2020-01-29","BSTAR":"0.00030588000000","RCS_SIZE":"LARGE","PERIAPSIS":"542.084","MEAN_MOTION_DOT":"0.00004460","OBJECT_NAME":"STARLINK-1155","ARG_OF_PERICENTER":"54.2395","OBJECT_TYPE":"PAYLOAD","EPHEMERIS_TYPE":"0","SEMIMAJOR_AXIS":"6920.825","CLASSIFICATION_TYPE":"U","APOAPSIS":"543.295","REF_FRAME":"TEME","MEAN_ELEMENT_THEORY":"SGP4","TLE_LINE2":"2 45053  53.0017  25.3767 0000875  54.2395 305.8675 15.07877274103425","SITE":"AFETR","ELEMENT_SET_NO":"999","MEAN_MOTION_DDOT":"0.0000000000000"},{"TLE_LINE2":"2 45054  53.0572  27.6618 0001553  63.1347 296.9801 15.06402689103415","SITE":"AFETR","ELEMENT_SET_NO":"999","MEAN_MOTION_DDOT":"0.0000000000000","APOAPSIS":"548.281","MEAN_ELEMENT_THEORY":"SGP4","REF_FRAME":"TEME","CLASSIFICATION_TYPE":"U","SEMIMAJOR_AXIS":"6925.340","EPHEMERIS_TYPE":"0","OBJECT_TYPE":"PAYLOAD","PERIAPSIS":"546.130","MEAN_MOTION_DOT":"0.00001150","OBJECT_NAME":"STARLINK-1156","ARG_OF_PERICENTER":"63.1347","BSTAR":"0.00009609800000","RCS_SIZE":"LARGE","LAUNCH_DATE":"2020-01-29","INCLINATION":"53.0572","PERIOD":"95.592","TIME_SYSTEM":"UTC","EPOCH":"2021-12-14T12:25:48.135936","COUNTRY_CODE":"US","OBJECT_ID":"2020-006L","MEAN_MOTION":"15.06402689","RA_OF_ASC_NODE":"27.6618","TLE_LINE1":"1 45054U 20006L   21348.51791824  .00001150  00000-0  96098-4 0  9994","ECCENTRICITY":"0.00015530","NORAD_CAT_ID":"45054","REV_AT_EPOCH":"10341","DECAY_DATE":null,"MEAN_ANOMALY":"296.9801","FILE":"3240057","CENTER_NAME":"EARTH","GP_ID":"191693351"},{"TLE_LINE1":"1 45057U 20006P   21348.53266019 -.00000664  00000-0 -25705-4 0  9990","OBJECT_ID":"2020-006P","MEAN_MOTION":"15.06396757","RA_OF_ASC_NODE":"27.5819","TIME_SYSTEM":"UTC","EPOCH":"2021-12-14T12:47:01.840416","COUNTRY_CODE":"US","PERIOD":"95.592","INCLINATION":"53.0556","CENTER_NAME":"EARTH","GP_ID":"191692599","DECAY_DATE":null,"MEAN_ANOMALY":"297.2332","FILE":"3240057","ECCENTRICITY":"0.00016800","NORAD_CAT_ID":"45057","REV_AT_EPOCH":"10342","OBJECT_TYPE":"PAYLOAD","SEMIMAJOR_AXIS":"6925.358","EPHEMERIS_TYPE":"0","CLASSIFICATION_TYPE":"U","APOAPSIS":"548.387","MEAN_ELEMENT_THEORY":"SGP4","REF_FRAME":"TEME","TLE_LINE2":"2 45057  53.0556  27.5819 0001680  62.8828 297.2332 15.06396757103425","SITE":"AFETR","ELEMENT_SET_NO":"999","MEAN_MOTION_DDOT":"0.0000000000000","LAUNCH_DATE":"2020-01-29","BSTAR":"-0.00002570500000","RCS_SIZE":"LARGE","PERIAPSIS":"546.060","MEAN_MOTION_DOT":"-0.00000664","OBJECT_NAME":"STARLINK-1159","ARG_OF_PERICENTER":"62.8828"},{"MEAN_MOTION_DDOT":"0.0000000000000","ELEMENT_SET_NO":"999","SITE":"AFETR","TLE_LINE2":"2 45058  53.0562  27.6323 0001492  67.7310 292.3837 15.06395054103420","MEAN_ELEMENT_THEORY":"SGP4","REF_FRAME":"TEME","APOAPSIS":"548.262","SEMIMAJOR_AXIS":"6925.364","CLASSIFICATION_TYPE":"U","EPHEMERIS_TYPE":"0","OBJECT_TYPE":"PAYLOAD","ARG_OF_PERICENTER":"67.7310","OBJECT_NAME":"STARLINK-1162","MEAN_MOTION_DOT":"-0.00000587","PERIAPSIS":"546.195","RCS_SIZE":"LARGE","BSTAR":"-0.00002049000000","LAUNCH_DATE":"2020-01-29","INCLINATION":"53.0562","PERIOD":"95.592","EPOCH":"2021-12-14T12:36:25.261632","COUNTRY_CODE":"US","TIME_SYSTEM":"UTC","OBJECT_ID":"2020-006Q","RA_OF_ASC_NODE":"27.6323","MEAN_MOTION":"15.06395054","TLE_LINE1":"1 45058U 20006Q   21348.52529238 -.00000587  00000-0 -20490-4 0  9995","REV_AT_EPOCH":"10342","NORAD_CAT_ID":"45058","ECCENTRICITY":"0.00014920","FILE":"3240057","MEAN_ANOMALY":"292.3837","DECAY_DATE":null,"GP_ID":"191692849","CENTER_NAME":"EARTH"},{"ECCENTRICITY":"0.00018120","REV_AT_EPOCH":"10342","NORAD_CAT_ID":"45059","GP_ID":"191693101","CENTER_NAME":"EARTH","DECAY_DATE":null,"FILE":"3240057","MEAN_ANOMALY":"301.0606","COUNTRY_CODE":"US","EPOCH":"2021-12-14T13:08:16.144512","TIME_SYSTEM":"UTC","INCLINATION":"53.0562","PERIOD":"95.593","TLE_LINE1":"1 45059U 20006R   21348.54740908 -.00000804  00000-0 -35062-4 0  9990","OBJECT_ID":"2020-006R","RA_OF_ASC_NODE":"27.5240","MEAN_MOTION":"15.06391211","RCS_SIZE":"LARGE","BSTAR":"-0.00003506200000","PERIAPSIS":"545.986","MEAN_MOTION_DOT":"-0.00000804","ARG_OF_PERICENTER":"59.0561","OBJECT_NAME":"STARLINK-1165","LAUNCH_DATE":"2020-01-29","APOAPSIS":"548.495","REF_FRAME":"TEME","MEAN_ELEMENT_THEORY":"SGP4","ELEMENT_SET_NO":"999","SITE":"AFETR","TLE_LINE2":"2 45059  53.0562  27.5240 0001812  59.0561 301.0606 15.06391211103429","MEAN_MOTION_DDOT":"0.0000000000000","OBJECT_TYPE":"PAYLOAD","SEMIMAJOR_AXIS":"6925.375","CLASSIFICATION_TYPE":"U","EPHEMERIS_TYPE":"0"},{"TLE_LINE1":"1 45060U 20006S   21348.54372281  .00007106  00000-0  49555-3 0  9998","OBJECT_ID":"2020-006S","MEAN_MOTION":"15.06391954","RA_OF_ASC_NODE":"27.5452","EPOCH":"2021-12-14T13:02:57.650784","COUNTRY_CODE":"US","TIME_SYSTEM":"UTC","INCLINATION":"53.0547","PERIOD":"95.593","CENTER_NAME":"EARTH","GP_ID":"191693851","FILE":"3240057","MEAN_ANOMALY":"294.5657","DECAY_DATE":null,"REV_AT_EPOCH":"10342","NORAD_CAT_ID":"45060","ECCENTRICITY":"0.00016450","OBJECT_TYPE":"PAYLOAD","CLASSIFICATION_TYPE":"U","SEMIMAJOR_AXIS":"6925.373","EPHEMERIS_TYPE":"0","REF_FRAME":"TEME","MEAN_ELEMENT_THEORY":"SGP4","APOAPSIS":"548.377","MEAN_MOTION_DDOT":"0.0000000000000","ELEMENT_SET_NO":"999","TLE_LINE2":"2 45060  53.0547  27.5452 0001645  65.5503 294.5657 15.06391954103427","SITE":"AFETR","LAUNCH_DATE":"2020-01-29","RCS_SIZE":"LARGE","BSTAR":"0.00049555000000","ARG_OF_PERICENTER":"65.5503","OBJECT_NAME":"STARLINK-1166","MEAN_MOTION_DOT":"0.00007106","PERIAPSIS":"546.099"},{"BSTAR":"-0.00002928700000","RCS_SIZE":"LARGE","OBJECT_NAME":"STARLINK-1169","ARG_OF_PERICENTER":"64.1173","PERIAPSIS":"546.070","MEAN_MOTION_DOT":"-0.00000718","LAUNCH_DATE":"2020-01-29","MEAN_ELEMENT_THEORY":"SGP4","REF_FRAME":"TEME","APOAPSIS":"548.383","MEAN_MOTION_DDOT":"0.0000000000000","TLE_LINE2":"2 45061  53.0563  27.5154 0001670  64.1173 295.9988 15.06395915103424","SITE":"AFETR","ELEMENT_SET_NO":"999","OBJECT_TYPE":"PAYLOAD","EPHEMERIS_TYPE":"0","SEMIMAJOR_AXIS":"6925.361","CLASSIFICATION_TYPE":"U","NORAD_CAT_ID":"45061","REV_AT_EPOCH":"10342","ECCENTRICITY":"0.00016700","CENTER_NAME":"EARTH","GP_ID":"191692100","MEAN_ANOMALY":"295.9988","FILE":"3240057","DECAY_DATE":null,"TIME_SYSTEM":"UTC","EPOCH":"2021-12-14T13:13:34.817952","COUNTRY_CODE":"US","INCLINATION":"53.0563","PERIOD":"95.592","TLE_LINE1":"1 45061U 20006T   21348.55109743 -.00000718  00000-0 -29287-4 0  9996","MEAN_MOTION":"15.06395915","OBJECT_ID":"2020-006T","RA_OF_ASC_NODE":"27.5154"},{"REV_AT_EPOCH":"10340","NORAD_CAT_ID":"45062","ECCENTRICITY":"0.00014640","GP_ID":"191692350","CENTER_NAME":"EARTH","FILE":"3240057","MEAN_ANOMALY":"300.0358","DECAY_DATE":null,"EPOCH":"2021-12-14T09:41:15.948384","COUNTRY_CODE":"US","TIME_SYSTEM":"UTC","INCLINATION":"53.0559","PERIOD":"95.592","TLE_LINE1":"1 45062U 20006U   21348.40365681 -.00000304  00000-0 -15410-5 0  9991","MEAN_MOTION":"15.06398279","OBJECT_ID":"2020-006U","RA_OF_ASC_NODE":"28.1629","RCS_SIZE":"LARGE","BSTAR":"-0.00000154100000","ARG_OF_PERICENTER":"60.0777","OBJECT_NAME":"STARLINK-1171","MEAN_MOTION_DOT":"-0.00000304","PERIAPSIS":"546.205","LAUNCH_DATE":"2020-01-29","REF_FRAME":"TEME","MEAN_ELEMENT_THEORY":"SGP4","APOAPSIS":"548.233","MEAN_MOTION_DDOT":"0.0000000000000","ELEMENT_SET_NO":"999","SITE":"AFETR","TLE_LINE2":"2 45062  53.0559  28.1629 0001464  60.0777 300.0358 15.06398279103403","OBJECT_TYPE":"PAYLOAD","SEMIMAJOR_AXIS":"6925.354","CLASSIFICATION_TYPE":"U","EPHEMERIS_TYPE":"0"},{"TIME_SYSTEM":"UTC","EPOCH":"2021-12-14T11:35:21.715008","COUNTRY_CODE":"US","INCLINATION":"53.0549","PERIOD":"95.590","TLE_LINE1":"1 45064U 20006W   21348.48289022 -.00005385  00000-0 -34256-3 0  9996","RA_OF_ASC_NODE":"7.8027","OBJECT_ID":"2020-006W","MEAN_MOTION":"15.06435687","NORAD_CAT_ID":"45064","REV_AT_EPOCH":"10369","ECCENTRICITY":"0.00017170","GP_ID":"191693601","CENTER_NAME":"EARTH","MEAN_ANOMALY":"308.4267","FILE":"3240057","DECAY_DATE":null,"REF_FRAME":"TEME","MEAN_ELEMENT_THEORY":"SGP4","APOAPSIS":"548.293","MEAN_MOTION_DDOT":"0.0000000000000","SITE":"AFETR","TLE_LINE2":"2 45064  53.0549   7.8027 0001717  51.6876 308.4267 15.06435687103694","ELEMENT_SET_NO":"999","OBJECT_TYPE":"PAYLOAD","EPHEMERIS_TYPE":"0","SEMIMAJOR_AXIS":"6925.239","CLASSIFICATION_TYPE":"U","BSTAR":"-0.00034256000000","RCS_SIZE":"LARGE","OBJECT_NAME":"STARLINK-1133","ARG_OF_PERICENTER":"51.6876","MEAN_MOTION_DOT":"-0.00005385","PERIAPSIS":"545.915","LAUNCH_DATE":"2020-01-29"},{"PERIAPSIS":"546.204","MEAN_MOTION_DOT":"0.00001008","ARG_OF_PERICENTER":"57.5918","OBJECT_NAME":"STARLINK-1139","RCS_SIZE":"LARGE","BSTAR":"0.00008659000000","LAUNCH_DATE":"2020-01-29","ELEMENT_SET_NO":"999","TLE_LINE2":"2 45065  53.0550   7.8081 0001475  57.5918 302.5214 15.06396084103694","SITE":"AFETR","MEAN_MOTION_DDOT":"0.0000000000000","APOAPSIS":"548.247","REF_FRAME":"TEME","MEAN_ELEMENT_THEORY":"SGP4","EPHEMERIS_TYPE":"0","SEMIMAJOR_AXIS":"6925.361","CLASSIFICATION_TYPE":"U","OBJECT_TYPE":"PAYLOAD","ECCENTRICITY":"0.00014750","REV_AT_EPOCH":"10369","NORAD_CAT_ID":"45065","DECAY_DATE":null,"FILE":"3240057","MEAN_ANOMALY":"302.5214","GP_ID":"191693352","CENTER_NAME":"EARTH","PERIOD":"95.592","INCLINATION":"53.0550","EPOCH":"2021-12-14T11:40:40.773792","COUNTRY_CODE":"US","TIME_SYSTEM":"UTC","MEAN_MOTION":"15.06396084","OBJECT_ID":"2020-006X","RA_OF_ASC_NODE":"7.8081","TLE_LINE1":"1 45065U 20006X   21348.48658303  .00001008  00000-0  86590-4 0  9994"}];
